     2.10           G: GLONASS NAV DATA                     RINEX VERSION / TYPE
teqc  2015Jun23                         20211014 01:25:47UTCPGM / RUN BY / DATE
Linux 2.4.21-27.ELsmp|Opteron|gcc -static|Linux x86_64|=+   COMMENT
  2021     9    20   -4.656612873077D-10                    CORR TO SYSTEM TIME
                                                            END OF HEADER
10 21  9 21 20 15  0.0-7.523875683546D-05-0.000000000000D+00 7.200000000000D+04
   -4.926376464844D+03-1.164816856384D+00 2.793967723846D-09 0.000000000000D+00
    1.954740136719D+04 1.802684783936D+00 1.862645149231D-09-7.000000000000D+00
    1.567336669922D+04-2.607818603516D+00-1.862645149231D-09 0.000000000000D+00
16 21  9 21 20 15  0.0-2.181716263294D-05 0.000000000000D+00 7.200000000000D+04
   -1.711646289062D+04 1.269020080566D+00 1.862645149231D-09 0.000000000000D+00
    1.155163037109D+04-1.620307922363D+00-9.313225746155D-10-1.000000000000D+00
   -1.507836767578D+04-2.672430992126D+00 1.862645149231D-09 0.000000000000D+00
20 21  9 21 20 15  0.0-5.628541111946D-05-0.000000000000D+00 7.200000000000D+04
   -4.085399902344D+03-8.912935256958D-01 1.862645149231D-09 0.000000000000D+00
    1.466017529297D+04-2.665030479431D+00 9.313225746155D-10 2.000000000000D+00
    2.046652587891D+04 1.734205245972D+00-1.862645149231D-09 0.000000000000D+00
21 21  9 21 20 15  0.0-2.410216256976D-04-2.728484105319D-12 7.200000000000D+04
    7.632438476562D+03-3.501701354980D-02 2.793967723846D-09 0.000000000000D+00
    2.388144482422D+04-6.990146636963D-01 4.656612873077D-09 4.000000000000D+00
    4.804592773438D+03 3.525232315063D+00-0.000000000000D+00 0.000000000000D+00
22 21  9 21 20 15  0.0-1.345491036773D-04-1.818989403546D-12 7.200000000000D+04
    1.315051220703D+04 8.024759292603D-01 1.862645149231D-09 0.000000000000D+00
    1.843252490234D+04 1.402665138245D+00 4.656612873077D-09-3.000000000000D+00
   -1.167643750000D+04 3.129754066467D+00 9.313225746155D-10 0.000000000000D+00
 9 21  9 21 20 45  0.0 1.441594213247D-05 9.094947017729D-13 7.380000000000D+04
   -1.422506445312D+04 4.676733016968D-01 2.793967723846D-09 0.000000000000D+00
    2.031423974609D+04-6.523332595825D-01-0.000000000000D+00-2.000000000000D+00
   -5.784454589844D+03-3.434740066528D+00 0.000000000000D+00 0.000000000000D+00
21 21  9 21 20 45  0.0-2.410272136331D-04-2.728484105319D-12 7.380000000000D+04
    7.117589843750D+03-5.647916793823D-01 3.725290298462D-09 0.000000000000D+00
    2.196458251953D+04-1.396867752075D+00 3.725290298462D-09 4.000000000000D+00
    1.088283496094D+04 3.184593200684D+00-9.313225746155D-10 0.000000000000D+00
10 21  9 21 20 45  0.0-7.523875683546D-05-0.000000000000D+00 7.380000000000D+04
   -6.463152832031D+03-5.552473068237D-01 3.725290298462D-09 0.000000000000D+00
    2.239772509766D+04 1.321728706360D+00 9.313225746155D-10-7.000000000000D+00
    1.043583349609D+04-3.173947334290D+00-9.313225746155D-10 0.000000000000D+00
16 21  9 21 20 45  0.0-2.181716263294D-05 0.000000000000D+00 7.380000000000D+04
   -1.477935546875D+04 1.285451889038D+00 9.313225746155D-10 0.000000000000D+00
    8.014439941406D+03-2.291001319885D+00-9.313225746155D-10-1.000000000000D+00
   -1.924796728516D+04-1.930404663086D+00 1.862645149231D-09 0.000000000000D+00
22 21  9 21 20 45  0.0-1.345537602901D-04-1.818989403546D-12 7.380000000000D+04
    1.444531933594D+04 5.916032791138D-01 3.725290298462D-09 0.000000000000D+00
    2.019595312500D+04 5.558376312256D-01 4.656612873077D-09-3.000000000000D+00
   -5.662685546875D+03 3.508679389954D+00 0.000000000000D+00 0.000000000000D+00
 6 21  9 21 20 45  0.0-5.142763257027D-06-1.818989403546D-12 7.386000000000D+04
   -1.653240136719D+04-2.356692314148D+00 9.313225746155D-10 0.000000000000D+00
    8.920450195312D+03 1.807327270508D-01-1.862645149231D-09-4.000000000000D+00
   -1.728503466797D+04 2.347013473511D+00 1.862645149231D-09 0.000000000000D+00
 7 21  9 21 20 45  0.0-4.107877612114D-05-0.000000000000D+00 7.386000000000D+04
    1.152315917969D+03-3.157369613647D+00 1.862645149231D-09 0.000000000000D+00
    1.091108740234D+04 2.824020385742D-02 9.313225746155D-10 5.000000000000D+00
   -2.299507519531D+04-1.490516662598D-01 2.793967723846D-09 0.000000000000D+00
 6 21  9 21 21 15  0.0-5.145557224751D-06-1.818989403546D-12 7.560000000000D+04
   -2.017117626953D+04-1.656181335449D+00 0.000000000000D+00 0.000000000000D+00
    9.477091796875D+03 4.038810729980D-01-2.793967723846D-09-4.000000000000D+00
   -1.244818066406D+04 2.992467880249D+00 9.313225746155D-10 0.000000000000D+00
 9 21  9 21 21 15  0.0 1.441873610020D-05 9.094947017729D-13 7.560000000000D+04
   -1.317760546875D+04 6.545658111572D-01 1.862645149231D-09 0.000000000000D+00
    1.840613623047D+04-1.465190887451D+00-9.313225746155D-10-2.000000000000D+00
   -1.166189746094D+04-3.053121566772D+00 9.313225746155D-10 0.000000000000D+00
 7 21  9 21 21 15  0.0-4.107877612114D-05-0.000000000000D+00 7.560000000000D+04
   -4.465920898438D+03-3.033884048462D+00 9.313225746155D-10 0.000000000000D+00
    1.136989160156D+04 4.736070632935D-01-0.000000000000D+00 5.000000000000D+00
   -2.236829199219D+04 8.407907485962D-01 2.793967723846D-09 0.000000000000D+00
10 21  9 21 21 15  0.0-7.523875683546D-05 0.000000000000D+00 7.560000000000D+04
   -6.999686523438D+03-6.885814666748D-02 3.725290298462D-09 0.000000000000D+00
    2.417048437500D+04 6.167993545532D-01 0.000000000000D+00-7.000000000000D+00
    4.394367675781D+03-3.495356559753D+00-0.000000000000D+00 0.000000000000D+00
21 21  9 21 21 15  0.0-2.410318702459D-04-2.728484105319D-12 7.560000000000D+04
    5.527575683594D+03-1.213095664978D+00 3.725290298462D-09 0.000000000000D+00
    1.899737988281D+04-1.854977607727D+00 1.862645149231D-09 4.000000000000D+00
    1.612121386719D+04 2.598067283630D+00-1.862645149231D-09 0.000000000000D+00
22 21  9 21 21 15  0.0-1.345584169030D-04-2.728484105319D-12 7.560000000000D+04
    1.512753662109D+04 1.277065277100D-01 4.656612873077D-09 0.000000000000D+00
    2.046645263672D+04-2.365455627441D-01 3.725290298462D-09-3.000000000000D+00
    7.909477539062D+02 3.615228652954D+00-0.000000000000D+00 0.000000000000D+00
 9 21  9 21 21 45  0.0 1.442059874535D-05 9.094947017729D-13 7.740000000000D+04
   -1.201658398438D+04 5.963582992554D-01 9.313225746155D-10 0.000000000000D+00
    1.508325781250D+04-2.205492019653D+00-1.862645149231D-09-2.000000000000D+00
   -1.663300927734D+04-2.434329032898D+00 1.862645149231D-09 0.000000000000D+00
10 21  9 21 21 45  0.0-7.523875683546D-05 0.000000000000D+00 7.740000000000D+04
   -6.832034179688D+03 2.171583175659D-01 3.725290298462D-09 0.000000000000D+00
    2.453434472656D+04-2.270860671997D-01-0.000000000000D+00-7.000000000000D+00
   -1.985507324219D+03-3.547552108765D+00 0.000000000000D+00 0.000000000000D+00
 7 21  9 21 21 45  0.0-4.107877612114D-05 0.000000000000D+00 7.740000000000D+04
   -9.595513671875D+03-2.621616363525D+00 9.313225746155D-10 0.000000000000D+00
    1.255629931641D+04 8.199357986450D-01-9.313225746155D-10 5.000000000000D+00
   -2.000799609375D+04 1.764535903931D+00 1.862645149231D-09 0.000000000000D+00
21 21  9 21 21 45  0.0-2.410365268588D-04-2.728484105319D-12 7.740000000000D+04
    2.744250488281D+03-1.871507644653D+00 1.862645149231D-09 0.000000000000D+00
    1.545826416016D+04-2.028673171997D+00 0.000000000000D+00 4.000000000000D+00
    2.011506494141D+04 1.810709953308D+00-1.862645149231D-09 0.000000000000D+00
22 21  9 21 21 45  0.0-1.345630735159D-04-2.728484105319D-12 7.740000000000D+04
    1.478681298828D+04-5.320281982422D-01 4.656612873077D-09 0.000000000000D+00
    1.944245263672D+04-8.665008544922D-01 2.793967723846D-09-3.000000000000D+00
    7.183056640625D+03 3.440730094910D+00-9.313225746155D-10 0.000000000000D+00
 6 21  9 21 21 45  0.0-5.149282515049D-06-1.818989403546D-12 7.743000000000D+04
   -2.241668261719D+04-8.263378143311D-01-0.000000000000D+00 0.000000000000D+00
    1.023766210938D+04 4.004878997803D-01-3.725290298462D-09-4.000000000000D+00
   -6.650958496094D+03 3.407169342041D+00 0.000000000000D+00 0.000000000000D+00
 6 21  9 21 22 15  0.0-5.153939127922D-06-1.818989403546D-12 7.920000000000D+04
   -2.313579541016D+04 2.049255371094D-02-9.313225746155D-10 0.000000000000D+00
    1.077050195312D+04 1.513662338257D-01-3.725290298462D-09-4.000000000000D+00
   -3.404853515625D+02 3.559024810791D+00-0.000000000000D+00 0.000000000000D+00
 9 21  9 21 22 15  0.0 1.442339271307D-05 1.818989403546D-12 7.920000000000D+04
   -1.115668017578D+04 3.294744491577D-01-0.000000000000D+00 0.000000000000D+00
    1.057356884766D+04-2.767992019653D+00-1.862645149231D-09-2.000000000000D+00
   -2.031197119141D+04-1.626848220825D+00 1.862645149231D-09 0.000000000000D+00
 7 21  9 21 22 15  0.0-4.107877612114D-05 0.000000000000D+00 7.920000000000D+04
   -1.376784667969D+04-1.983974456787D+00 0.000000000000D+00 0.000000000000D+00
    1.420831933594D+04 9.784698486328D-01-1.862645149231D-09 5.000000000000D+00
   -1.609870898438D+04 2.550741195679D+00 1.862645149231D-09 0.000000000000D+00
10 21  9 21 22 15  0.0-7.523875683546D-05 0.000000000000D+00 7.920000000000D+04
   -6.362738769531D+03 2.633008956909D-01 1.862645149231D-09 0.000000000000D+00
    2.333470214844D+04-1.101204872131D+00-9.313225746155D-10-7.000000000000D+00
   -8.212489746094D+03-3.326564788818D+00 9.313225746155D-10 0.000000000000D+00
21 21  9 21 22 15  0.0-2.410411834717D-04-2.728484105319D-12 7.920000000000D+04
   -1.146794433594D+03-2.425256729126D+00 9.313225746155D-10 0.000000000000D+00
    1.186458593750D+04-1.919875144958D+00-0.000000000000D+00 4.000000000000D+00
    2.255538818359D+04 8.830823898315D-01-2.793967723846D-09 0.000000000000D+00
22 21  9 21 22 15  0.0-1.345686614513D-04-2.728484105319D-12 7.920000000000D+04
    1.315057910156D+04-1.293802261353D+00 4.656612873077D-09 0.000000000000D+00
    1.749229541016D+04-1.255821228027D+00 1.862645149231D-09-3.000000000000D+00
    1.301665380859D+04 2.998743057251D+00-1.862645149231D-09 0.000000000000D+00
